NORAD_CAT_ID,OBJECT_NAME,OBJECT_TYPE,EPOCH,MEAN_MOTION,ECCENTRICITY,INCLINATION,RA_OF_ASC_NODE,ARG_OF_PERICENTER,MEAN_ANOMALY,BSTAR,MEAN_MOTION_DOT,MEAN_MOTION_DDOT,TLE_LINE0,TLE_LINE1,TLE_LINE2,SEMIMAJOR_AXIS,PERIOD,APOGEE,PERIGEE,DECAYED
55439.0,STARLINK-5634,PAYLOAD,2024-03-08 12:18:22,14.98336104,0.0002767,70.0001,148.091,267.2158,92.8685,0.00014366,1.622e-05,0.0,0 STARLINK-5634,1 55439U 23014BA  24068.51276209  .00001622  00000-0  14366-3 0  9992,2 55439  70.0001 148.0910 0002767 267.2158  92.8685 14.98336104 61545,6950.174,96.107,573.962,570.116,0.0
55439.0,STARLINK-5634,PAYLOAD,2024-03-08 21:55:11,14.98332773,0.0002729,70.0004,147.0823,261.7062,98.3788,8.2353e-05,8.9e-06,0.0,0 STARLINK-5634,1 55439U 23014BA  24068.91332365  .00000890  00000-0  82353-4 0  9990,2 55439  70.0004 147.0823 0002729 261.7062  98.3788 14.98332773 61601,6950.184,96.107,573.946,570.153,0.0
55439.0,STARLINK-5634,PAYLOAD,2024-03-09 04:19:44,14.98268865,0.0002987,70.0002,146.4087,261.2553,98.8268,0.0012572,0.00014916,0.0,0 STARLINK-5634,1 55439U 23014BA  24069.18037403  .00014916  00000-0  12572-2 0  9993,2 55439  70.0002 146.4087 0002987 261.2553  98.8268 14.98268865 60708,6950.382,96.111,574.323,570.171,0.0
55439.0,STARLINK-5634,PAYLOAD,2024-03-09 10:44:15,14.9833667,0.0002903,70.0005,145.7355,269.9107,90.1719,2.4265e-05,1.97e-06,0.0,0 STARLINK-5634,1 55439U 23014BA  24069.44740016  .00000197  00000-0  24265-4 0  9993,2 55439  70.0005 145.7355 0002903 269.9107  90.1719 14.98336670 60749,6950.172,96.107,574.055,570.02,0.0
55439.0,STARLINK-5634,PAYLOAD,2024-03-09 12:20:23,14.98338204,0.0002829,70.0003,145.5673,267.4874,92.5961,-1.6293e-05,-2.87e-06,0.0,0 STARLINK-5634,1 55439U 23014BA  24069.51415935 -.00000287  00000-0 -16293-4 0  9994,2 55439  70.0003 145.5673 0002829 267.4874  92.5961 14.98338204 61694,6950.168,96.106,573.999,570.066,0.0
55439.0,STARLINK-5634,PAYLOAD,2024-03-09 21:57:11,14.98339599,0.0002842,70.0003,144.557,267.8987,92.1846,-3.5345e-05,-5.15e-06,0.0,0 STARLINK-5634,1 55439U 23014BA  24069.91471637 -.00000515  00000-0 -35345-4 0  9992,2 55439  70.0003 144.5570 0002842 267.8987  92.1846 14.98339599 61756,6950.163,96.106,574.003,570.053,0.0
55439.0,STARLINK-5634,PAYLOAD,2024-03-10 12:22:24,14.98333563,0.0002786,70.0003,143.0421,266.5602,93.5238,2.3985e-06,-6.4e-07,0.0,0 STARLINK-5634,1 55439U 23014BA  24070.51555716 -.00000064  00000-0  23985-5 0  9997,2 55439  70.0003 143.0421 0002786 266.5602  93.5238 14.98333563 60903,6950.182,96.107,573.983,570.111,0.0
55439.0,STARLINK-5634,PAYLOAD,2024-03-10 21:59:12,14.98335818,0.0003008,69.9999,142.0318,269.8048,90.2766,-9.3719e-06,-2.05e-06,0.0,0 STARLINK-5634,1 55439U 23014BA  24070.91611437 -.00000205  00000-0 -93719-5 0  9994,2 55439  69.9999 142.0318 0003008 269.8048  90.2766 14.98335818 61902,6950.175,96.107,574.131,569.949,0.0
55439.0,STARLINK-5634,PAYLOAD,2024-03-11 12:24:25,14.98328675,0.000289,70.0002,140.5175,267.4802,92.6026,3.1314e-06,-5.6e-07,0.0,0 STARLINK-5634,1 55439U 23014BA  24071.51695884 -.00000056  00000-0  31314-5 0  9995,2 55439  70.0002 140.5175 0002890 267.4802  92.6026 14.98328675 61058,6950.197,96.107,574.071,570.053,0.0
55439.0,STARLINK-5634,PAYLOAD,2024-03-12 12:26:25,14.98331723,0.0002823,70.0001,137.9929,268.5768,91.5068,3.6936e-05,3.48e-06,0.0,0 STARLINK-5634,1 55439U 23014BA  24072.51835542  .00000348  00000-0  36936-4 0  9990,2 55439  70.0001 137.9929 0002823 268.5768  91.5068 14.98331723 61202,6950.188,96.107,574.015,570.091,0.0
55439.0,STARLINK-5634,PAYLOAD,2024-03-13 12:28:26,14.98333188,0.0002883,69.9998,135.4676,268.7368,91.3461,8.8013e-05,9.57e-06,0.0,0 STARLINK-5634,1 55439U 23014BA  24073.51975223  .00000957  00000-0  88013-4 0  9991,2 55439  69.9998 135.4676 0002883 268.7368  91.3461 14.98333188 61358,6950.183,96.107,574.052,570.044,0.0
55439.0,STARLINK-5634,PAYLOAD,2024-03-14 06:05:55,14.98334421,0.0002887,69.9997,133.6159,269.4555,90.6274,4.6258e-05,4.59e-06,0.0,0 STARLINK-5634,1 55439U 23014BA  24074.25411097  .00000459  00000-0  46258-4 0  9999,2 55439  69.9997 133.6159 0002887 269.4555  90.6274 14.98334421 62405,6950.179,96.107,574.051,570.038,0.0
55439.0,STARLINK-5634,PAYLOAD,2024-03-14 10:54:19,14.98335745,0.0002864,69.9997,133.111,269.176,90.9071,5.996e-05,6.23e-06,0.0,0 STARLINK-5634,1 55439U 23014BA  24074.45438917  .00000623  00000-0  59960-4 0  9998,2 55439  69.9997 133.1110 0002864 269.1760  90.9071 14.98335745 62438,6950.175,96.107,574.031,570.05,0.0
55439.0,STARLINK-5634,PAYLOAD,2024-03-15 04:31:48,14.98330967,0.0002831,69.9996,131.2594,269.7472,90.3363,-2.3327e-05,-3.71e-06,0.0,0 STARLINK-5634,1 55439U 23014BA  24075.18875317 -.00000371  00000-0 -23327-4 0  9998,2 55439  69.9996 131.2594 0002831 269.7472  90.3363 14.98330967 61609,6950.19,96.107,574.022,570.087,0.0
55439.0,STARLINK-5634,PAYLOAD,2024-03-15 10:56:20,14.9832887,0.0002867,69.9995,130.5861,269.7028,90.3803,-4.7009e-05,-6.54e-06,0.0,0 STARLINK-5634,1 55439U 23014BA  24075.45579492 -.00000654  00000-0 -47009-4 0  9990,2 55439  69.9995 130.5861 0002867 269.7028  90.3803 14.98328870 62580,6950.196,96.107,574.054,570.069,0.0
55439.0,STARLINK-5634,PAYLOAD,2024-03-16 04:33:49,14.98327646,0.0002692,69.9996,128.7346,262.1848,97.9005,-3.1039e-05,-4.63e-06,0.0,0 STARLINK-5634,1 55439U 23014BA  24076.19015559 -.00000463  00000-0 -31039-4 0  9995,2 55439  69.9996 128.7346 0002692 262.1848  97.9005 14.98327646 61756,6950.2,96.107,573.936,570.194,0.0
55439.0,STARLINK-5634,PAYLOAD,2024-03-16 14:10:38,14.98326239,0.0002731,69.9995,127.7246,263.6133,96.4715,-4.3295e-05,-6.09e-06,0.0,0 STARLINK-5634,1 55439U 23014BA  24076.59071762 -.00000609  00000-0 -43295-4 0  9996,2 55439  69.9995 127.7246 0002731 263.6133  96.4715 14.98326239 62750,6950.205,96.107,573.968,570.171,0.0
55439.0,STARLINK-5634,PAYLOAD,2024-03-17 04:35:50,14.98328081,0.000298,69.9988,126.2092,268.3719,91.7099,7.0728e-05,7.51e-06,0.0,0 STARLINK-5634,1 55439U 23014BA  24077.19155393  .00000751  00000-0  70728-4 0  9993,2 55439  69.9988 126.2092 0002980 268.3719  91.7099 14.98328081 61909,6950.199,96.107,574.135,569.993,0.0
55439.0,STARLINK-5634,PAYLOAD,2024-03-17 12:36:28,14.98346166,0.0002774,69.9998,125.3686,252.2967,107.7889,0.00027388,3.178e-05,0.0,0 STARLINK-5634,1 55439U 23014BA  24077.52533527  .00003178  00000-0  27388-3 0  9998,2 55439  69.9998 125.3686 0002774 252.2967 107.7889 14.98346166 61951,6950.143,96.106,573.936,570.08,0.0
55439.0,STARLINK-5634,PAYLOAD,2024-03-18 04:37:50,14.98327327,0.0002513,70.0031,123.69,229.869,130.225,0.00014039,1.582e-05,0.0,0 STARLINK-5634,1 55439U 23014BA  24078.19294767  .00001582  00000-0  14039-3 0  9998,2 55439  70.0031 123.6900 0002513 229.8690 130.2250 14.98327327 62059,6950.201,96.107,573.813,570.32,0.0
55439.0,STARLINK-5634,PAYLOAD,2024-03-18 11:02:23,14.98324099,0.0002934,69.9996,123.0131,261.5243,98.5584,-1.8897e-05,-3.18e-06,0.0,0 STARLINK-5634,1 55439U 23014BA  24078.45999459 -.00000318  00000-0 -18897-4 0  9992,2 55439  69.9996 123.0131 0002934 261.5243  98.5584 14.98324099 62093,6950.211,96.107,574.115,570.037,0.0
55439.0,STARLINK-5634,PAYLOAD,2024-03-19 11:04:23,14.98335176,0.0002696,69.9999,120.4891,246.3516,113.736,-3.2604e-05,-4.82e-06,0.0,0 STARLINK-5634,1 55439U 23014BA  24079.46138837 -.00000482  00000-0 -32604-4 0  9993,2 55439  69.9999 120.4891 0002696 246.3516 113.7360 14.98335176 63180,6950.177,96.107,573.916,570.168,0.0
55439.0,STARLINK-5634,PAYLOAD,2024-03-19 12:40:31,14.98339845,0.0002873,69.9993,120.3201,255.7956,104.2884,-9.6859e-05,-1.249e-05,0.0,0 STARLINK-5634,1 55439U 23014BA  24079.52814698 -.00001249  00000-0 -96859-4 0  9990,2 55439  69.9993 120.3201 0002873 255.7956 104.2884 14.98339845 62257,6950.162,96.106,574.024,570.031,0.0
55439.0,STARLINK-5634,PAYLOAD,2024-03-20 09:30:16,14.98328855,0.0002937,69.9992,118.1309,264.7338,95.3486,0.00010909,1.209e-05,0.0,0 STARLINK-5634,1 55439U 23014BA  24080.39602682  .00001209  00000-0  10909-3 0  9990,2 55439  69.9992 118.1309 0002937 264.7338  95.3486 14.98328855 62386,6950.196,96.107,574.103,570.02,0.0
55439.0,STARLINK-5634,PAYLOAD,2024-03-20 12:42:32,14.98329513,0.0002945,69.9991,117.794,265.8057,94.2765,0.00011386,1.266e-05,0.0,0 STARLINK-5634,1 55439U 23014BA  24080.52954675  .00001266  00000-0  11386-3 0  9990,2 55439  69.9991 117.7940 0002945 265.8057  94.2765 14.98329513 63347,6950.194,96.107,574.106,570.013,0.0
55439.0,STARLINK-5634,PAYLOAD,2024-03-21 12:44:34,14.98329615,0.0002823,69.9993,115.2682,266.992,93.0916,1.5086e-05,8.7e-07,0.0,0 STARLINK-5634,1 55439U 23014BA  24081.53095040  .00000087  00000-0  15086-4 0  9996,2 55439  69.9993 115.2682 0002823 266.9920  93.0916 14.98329615 62551,6950.194,96.107,574.021,570.097,0.0
55439.0,STARLINK-5634,PAYLOAD,2024-03-22 11:10:26,14.98335805,0.0002847,69.9991,112.9114,266.799,93.2844,6.3668e-05,6.67e-06,0.0,0 STARLINK-5634,1 55439U 23014BA  24082.46558347  .00000667  00000-0  63668-4 0  9996,2 55439  69.9991 112.9114 0002847 266.7990  93.2844 14.98335805 62699,6950.175,96.107,574.019,570.061,0.0
55439.0,STARLINK-5634,PAYLOAD,2024-03-23 04:47:57,14.98326554,0.0002659,69.999,111.0596,263.8168,96.2688,8.5317e-05,9.25e-06,0.0,0 STARLINK-5634,1 55439U 23014BA  24083.19996552  .00000925  00000-0  85317-4 0  9993,2 55439  69.9990 111.0596 0002659 263.8168  96.2688 14.98326554 62801,6950.204,96.107,573.917,570.22,0.0
55439.0,STARLINK-5634,PAYLOAD,2024-03-23 19:13:09,14.98335404,0.0002886,69.9988,109.5442,269.9068,90.176,0.00015789,1.792e-05,0.0,0 STARLINK-5634,1 55439U 23014BA  24083.80079965  .00001792  00000-0  15789-3 0  9999,2 55439  69.9988 109.5442 0002886 269.9068  90.1760 14.98335404 62895,6950.176,96.107,574.047,570.035,0.0
55439.0,STARLINK-5634,PAYLOAD,2024-03-24 11:14:28,14.98351886,0.0002902,69.9986,107.861,269.932,90.1507,0.00030275,3.523e-05,0.0,0 STARLINK-5634,1 55439U 23014BA  24084.46838636  .00003523  00000-0  30275-3 0  9991,2 55439  69.9986 107.8610 0002902 269.9320  90.1507 14.98351886 62993,6950.125,96.106,574.007,569.973,0.0
